[{"OBJECT_NAME":"DUPLEX","OBJECT_ID":"1998-067XS","EPOCH":"2026-04-01T02:46:01.590816","MEAN_MOTION":15.57724655,"ECCENTRICITY":0.00030674,"INCLINATION":51.6289,"RA_OF_ASC_NODE":317.1598,"ARG_OF_PERICENTER":216.2059,"MEAN_ANOMALY":143.8726,"EPHEMERIS_TYPE":0,"CLASSIFICATION_TYPE":"U","NORAD_CAT_ID":66906,"ELEMENT_SET_NO":999,"REV_AT_EPOCH":1862,"BSTAR":0.00045047471,"MEAN_MOTION_DOT":0.00033711,"MEAN_MOTION_DDOT":0},{"OBJECT_NAME":"ISS OBJECT XT","OBJECT_ID":"1998-067XT","EPOCH":"2026-04-01T21:24:26.653824","MEAN_MOTION":15.7843381,"ECCENTRICITY":0.000675,"INCLINATION":51.6226,"RA_OF_ASC_NODE":306.5524,"ARG_OF_PERICENTER":231.8821,"MEAN_ANOMALY":128.1571,"EPHEMERIS_TYPE":0,"CLASSIFICATION_TYPE":"U","NORAD_CAT_ID":66907,"ELEMENT_SET_NO":999,"REV_AT_EPOCH":1883,"BSTAR":0.0014895,"MEAN_MOTION_DOT":0.00271653,"MEAN_MOTION_DDOT":0},{"OBJECT_NAME":"ISS OBJECT XU","OBJECT_ID":"1998-067XU","EPOCH":"2026-04-01T21:17:58.200288","MEAN_MOTION":15.78743702,"ECCENTRICITY":0.0006971,"INCLINATION":51.6227,"RA_OF_ASC_NODE":306.5178,"ARG_OF_PERICENTER":231.5533,"MEAN_ANOMALY":128.4842,"EPHEMERIS_TYPE":0,"CLASSIFICATION_TYPE":"U","NORAD_CAT_ID":66908,"ELEMENT_SET_NO":999,"REV_AT_EPOCH":1883,"BSTAR":0.0015333,"MEAN_MOTION_DOT":0.00284033,"MEAN_MOTION_DDOT":0},{"OBJECT_NAME":"SILVERSAT","OBJECT_ID":"1998-067XV","EPOCH":"2026-04-01T00:09:49.991904","MEAN_MOTION":15.84315758,"ECCENTRICITY":0.00080265,"INCLINATION":51.6192,"RA_OF_ASC_NODE":309.6226,"ARG_OF_PERICENTER":232.8926,"MEAN_ANOMALY":127.1344,"EPHEMERIS_TYPE":0,"CLASSIFICATION_TYPE":"U","NORAD_CAT_ID":66909,"ELEMENT_SET_NO":999,"REV_AT_EPOCH":1871,"BSTAR":0.0015922283,"MEAN_MOTION_DOT":0.00386729,"MEAN_MOTION_DDOT":0},{"OBJECT_NAME":"ISS OBJECT XW","OBJECT_ID":"1998-067XW","EPOCH":"2026-04-01T00:22:43.365216","MEAN_MOTION":15.76293505,"ECCENTRICITY":0.0006908,"INCLINATION":51.6214,"RA_OF_ASC_NODE":311.1958,"ARG_OF_PERICENTER":221.9549,"MEAN_ANOMALY":138.0922,"EPHEMERIS_TYPE":0,"CLASSIFICATION_TYPE":"U","NORAD_CAT_ID":66910,"ELEMENT_SET_NO":999,"REV_AT_EPOCH":1869,"BSTAR":0.0012822,"MEAN_MOTION_DOT":0.00210998,"MEAN_MOTION_DDOT":0},{"OBJECT_NAME":"ISS OBJECT XX","OBJECT_ID":"1998-067XX","EPOCH":"2026-04-01T21:00:05.872608","MEAN_MOTION":15.93473578,"ECCENTRICITY":0.0010278,"INCLINATION":51.6164,"RA_OF_ASC_NODE":303.3744,"ARG_OF_PERICENTER":244.107,"MEAN_ANOMALY":115.8878,"EPHEMERIS_TYPE":0,"CLASSIFICATION_TYPE":"U","NORAD_CAT_ID":66911,"ELEMENT_SET_NO":999,"REV_AT_EPOCH":1886,"BSTAR":0.0017622,"MEAN_MOTION_DOT":0.00647261,"MEAN_MOTION_DDOT":0.00018197},{"OBJECT_NAME":"ISS OBJECT XY","OBJECT_ID":"1998-067XY","EPOCH":"2026-04-01T20:57:40.514976","MEAN_MOTION":15.68620827,"ECCENTRICITY":0.0004752,"INCLINATION":51.6257,"RA_OF_ASC_NODE":309.4565,"ARG_OF_PERICENTER":225.3322,"MEAN_ANOMALY":134.7288,"EPHEMERIS_TYPE":0,"CLASSIFICATION_TYPE":"U","NORAD_CAT_ID":66912,"ELEMENT_SET_NO":999,"REV_AT_EPOCH":1878,"BSTAR":0.0010364,"MEAN_MOTION_DOT":0.00121475,"MEAN_MOTION_DDOT":0},{"OBJECT_NAME":"KNACKSAT-2","OBJECT_ID":"1998-067XZ","EPOCH":"2026-03-31T23:54:00.274464","MEAN_MOTION":15.53721795,"ECCENTRICITY":0.00102403,"INCLINATION":51.6314,"RA_OF_ASC_NODE":320.8633,"ARG_OF_PERICENTER":267.3943,"MEAN_ANOMALY":92.5875,"EPHEMERIS_TYPE":0,"CLASSIFICATION_TYPE":"U","NORAD_CAT_ID":67683,"ELEMENT_SET_NO":999,"REV_AT_EPOCH":825,"BSTAR":0.00070857037,"MEAN_MOTION_DOT":0.00046098,"MEAN_MOTION_DDOT":0},{"OBJECT_NAME":"CORAL","OBJECT_ID":"1998-067YA","EPOCH":"2026-04-01T21:08:51.890496","MEAN_MOTION":15.58404282,"ECCENTRICITY":0.0013287,"INCLINATION":51.6293,"RA_OF_ASC_NODE":315.5246,"ARG_OF_PERICENTER":260.7117,"MEAN_ANOMALY":99.2373,"EPHEMERIS_TYPE":0,"CLASSIFICATION_TYPE":"U","NORAD_CAT_ID":67684,"ELEMENT_SET_NO":999,"REV_AT_EPOCH":840,"BSTAR":0.0012213,"MEAN_MOTION_DOT":0.00095741,"MEAN_MOTION_DDOT":0},{"OBJECT_NAME":"GXIBA-1","OBJECT_ID":"1998-067YB","EPOCH":"2026-04-01T21:14:06.336384","MEAN_MOTION":15.54391194,"ECCENTRICITY":0.0012296,"INCLINATION":51.6317,"RA_OF_ASC_NODE":316.2995,"ARG_OF_PERICENTER":267.6906,"MEAN_ANOMALY":92.2676,"EPHEMERIS_TYPE":0,"CLASSIFICATION_TYPE":"U","NORAD_CAT_ID":67685,"ELEMENT_SET_NO":999,"REV_AT_EPOCH":839,"BSTAR":0.00072618,"MEAN_MOTION_DOT":0.00048495,"MEAN_MOTION_DDOT":0},{"OBJECT_NAME":"UITMSAT-2","OBJECT_ID":"1998-067YC","EPOCH":"2026-04-01T20:49:18.528384","MEAN_MOTION":15.55443039,"ECCENTRICITY":0.0009333,"INCLINATION":51.6311,"RA_OF_ASC_NODE":316.1867,"ARG_OF_PERICENTER":241.1097,"MEAN_ANOMALY":118.8958,"EPHEMERIS_TYPE":0,"CLASSIFICATION_TYPE":"U","NORAD_CAT_ID":67686,"ELEMENT_SET_NO":999,"REV_AT_EPOCH":839,"BSTAR":0.0008524,"MEAN_MOTION_DOT":0.00059268,"MEAN_MOTION_DDOT":0},{"OBJECT_NAME":"HMU-SAT2","OBJECT_ID":"1998-067YD","EPOCH":"2026-04-01T21:22:10.189344","MEAN_MOTION":15.54129932,"ECCENTRICITY":0.0008895,"INCLINATION":51.6317,"RA_OF_ASC_NODE":316.3398,"ARG_OF_PERICENTER":243.7154,"MEAN_ANOMALY":116.2923,"EPHEMERIS_TYPE":0,"CLASSIFICATION_TYPE":"U","NORAD_CAT_ID":67687,"ELEMENT_SET_NO":999,"REV_AT_EPOCH":831,"BSTAR":0.00073195,"MEAN_MOTION_DOT":0.00048342,"MEAN_MOTION_DDOT":0},{"OBJECT_NAME":"LEOPARD","OBJECT_ID":"1998-067YE","EPOCH":"2026-04-01T21:00:36.852192","MEAN_MOTION":15.54964174,"ECCENTRICITY":0.0009084,"INCLINATION":51.6312,"RA_OF_ASC_NODE":316.2399,"ARG_OF_PERICENTER":241.2803,"MEAN_ANOMALY":118.7275,"EPHEMERIS_TYPE":0,"CLASSIFICATION_TYPE":"U","NORAD_CAT_ID":67688,"ELEMENT_SET_NO":999,"REV_AT_EPOCH":831,"BSTAR":0.00079652,"MEAN_MOTION_DOT":0.00054338,"MEAN_MOTION_DDOT":0},{"OBJECT_NAME":"CREW DRAGON 12","OBJECT_ID":"2026-031A","EPOCH":"2026-04-01T21:00:31.001184","MEAN_MOTION":15.48704904,"ECCENTRICITY":0.0006234,"INCLINATION":51.6332,"RA_OF_ASC_NODE":317.7346,"ARG_OF_PERICENTER":261.121,"MEAN_ANOMALY":98.9072,"EPHEMERIS_TYPE":0,"CLASSIFICATION_TYPE":"U","NORAD_CAT_ID":67796,"ELEMENT_SET_NO":999,"REV_AT_EPOCH":55989,"BSTAR":0.00016662,"MEAN_MOTION_DOT":8.649e-5,"MEAN_MOTION_DDOT":0},{"OBJECT_NAME":"PROGRESS-MS 33","OBJECT_ID":"2026-058A","EPOCH":"2026-04-01T21:00:31.001184","MEAN_MOTION":15.48704904,"ECCENTRICITY":0.0006234,"INCLINATION":51.6332,"RA_OF_ASC_NODE":317.7346,"ARG_OF_PERICENTER":261.121,"MEAN_ANOMALY":98.9072,"EPHEMERIS_TYPE":0,"CLASSIFICATION_TYPE":"U","NORAD_CAT_ID":68319,"ELEMENT_SET_NO":999,"REV_AT_EPOCH":140,"BSTAR":0.00016662,"MEAN_MOTION_DOT":8.649e-5,"MEAN_MOTION_DDOT":0}]
